[{"OBJECT_NAME":"EXPRESS AMU-7","OBJECT_ID":"2021-123A","EPOCH":"2026-04-26T21:44:38.585760","MEAN_MOTION":1.00271977,"ECCENTRICITY":5.47e-5,"INCLINATION":0.0178,"RA_OF_ASC_NODE":255.5871,"ARG_OF_PERICENTER":42.5359,"MEAN_ANOMALY":27.9447,"EPHEMERIS_TYPE":0,"CLASSIFICATION_TYPE":"U","NORAD_CAT_ID":50001,"ELEMENT_SET_NO":999,"REV_AT_EPOCH":1602,"BSTAR":0,"MEAN_MOTION_DOT":-2.54e-6,"MEAN_MOTION_DDOT":0},{"OBJECT_NAME":"EXPRESS AMU-3","OBJECT_ID":"2021-123B","EPOCH":"2026-04-26T02:51:22.699008","MEAN_MOTION":1.00271425,"ECCENTRICITY":3.07e-5,"INCLINATION":0.0217,"RA_OF_ASC_NODE":265.7413,"ARG_OF_PERICENTER":38.4559,"MEAN_ANOMALY":55.7912,"EPHEMERIS_TYPE":0,"CLASSIFICATION_TYPE":"U","NORAD_CAT_ID":50002,"ELEMENT_SET_NO":999,"REV_AT_EPOCH":651,"BSTAR":0,"MEAN_MOTION_DOT":-3.35e-6,"MEAN_MOTION_DDOT":0},{"OBJECT_NAME":"TIANLIAN 2-02","OBJECT_ID":"2021-124A","EPOCH":"2026-04-26T07:32:03.928704","MEAN_MOTION":1.00271985,"ECCENTRICITY":0.00030503,"INCLINATION":0.6686,"RA_OF_ASC_NODE":86.8391,"ARG_OF_PERICENTER":220.8555,"MEAN_ANOMALY":190.5891,"EPHEMERIS_TYPE":0,"CLASSIFICATION_TYPE":"U","NORAD_CAT_ID":50005,"ELEMENT_SET_NO":999,"REV_AT_EPOCH":1610,"BSTAR":0,"MEAN_MOTION_DOT":-2.6e-7,"MEAN_MOTION_DDOT":0},{"OBJECT_NAME":"TURKSAT 5B","OBJECT_ID":"2021-126A","EPOCH":"2026-04-27T04:48:38.757312","MEAN_MOTION":1.002728,"ECCENTRICITY":0.0004564,"INCLINATION":0.0719,"RA_OF_ASC_NODE":346.7106,"ARG_OF_PERICENTER":1.2564,"MEAN_ANOMALY":341.3825,"EPHEMERIS_TYPE":0,"CLASSIFICATION_TYPE":"U","NORAD_CAT_ID":50212,"ELEMENT_SET_NO":999,"REV_AT_EPOCH":1578,"BSTAR":0,"MEAN_MOTION_DOT":1.36e-6,"MEAN_MOTION_DDOT":0},{"OBJECT_NAME":"INMARSAT 6-F1","OBJECT_ID":"2021-128A","EPOCH":"2026-04-27T00:13:55.882848","MEAN_MOTION":1.0027293,"ECCENTRICITY":9.1e-6,"INCLINATION":0.0165,"RA_OF_ASC_NODE":255.3346,"ARG_OF_PERICENTER":297.4412,"MEAN_ANOMALY":109.4662,"EPHEMERIS_TYPE":0,"CLASSIFICATION_TYPE":"U","NORAD_CAT_ID":50319,"ELEMENT_SET_NO":999,"REV_AT_EPOCH":1574,"BSTAR":0,"MEAN_MOTION_DOT":-1.83e-6,"MEAN_MOTION_DDOT":0},{"OBJECT_NAME":"SHIYAN-12 01 (SY-12 01)","OBJECT_ID":"2021-129A","EPOCH":"2026-04-26T18:11:49.661088","MEAN_MOTION":1.00063277,"ECCENTRICITY":0.0003201,"INCLINATION":3.5439,"RA_OF_ASC_NODE":80.5813,"ARG_OF_PERICENTER":274.108,"MEAN_ANOMALY":235.0544,"EPHEMERIS_TYPE":0,"CLASSIFICATION_TYPE":"U","NORAD_CAT_ID":50321,"ELEMENT_SET_NO":999,"REV_AT_EPOCH":1598,"BSTAR":0,"MEAN_MOTION_DOT":-2.91e-6,"MEAN_MOTION_DDOT":0},{"OBJECT_NAME":"SHIYAN-12 02 (SY-12 02)","OBJECT_ID":"2021-129B","EPOCH":"2026-04-26T15:30:44.332416","MEAN_MOTION":1.0047268,"ECCENTRICITY":8.48e-5,"INCLINATION":3.5436,"RA_OF_ASC_NODE":80.5962,"ARG_OF_PERICENTER":29.9516,"MEAN_ANOMALY":25.9033,"EPHEMERIS_TYPE":0,"CLASSIFICATION_TYPE":"U","NORAD_CAT_ID":50322,"ELEMENT_SET_NO":999,"REV_AT_EPOCH":1598,"BSTAR":0,"MEAN_MOTION_DOT":8.3e-7,"MEAN_MOTION_DDOT":0},{"OBJECT_NAME":"TJS-9","OBJECT_ID":"2021-135A","EPOCH":"2026-04-26T22:46:34.262688","MEAN_MOTION":1.00270967,"ECCENTRICITY":0.0003956,"INCLINATION":0.0196,"RA_OF_ASC_NODE":315.7658,"ARG_OF_PERICENTER":118.3389,"MEAN_ANOMALY":259.7136,"EPHEMERIS_TYPE":0,"CLASSIFICATION_TYPE":"U","NORAD_CAT_ID":50574,"ELEMENT_SET_NO":999,"REV_AT_EPOCH":1591,"BSTAR":0,"MEAN_MOTION_DOT":-3.1e-6,"MEAN_MOTION_DDOT":0},{"OBJECT_NAME":"GOES 18","OBJECT_ID":"2022-021A","EPOCH":"2026-04-26T23:11:01.917024","MEAN_MOTION":1.00271663,"ECCENTRICITY":6.69e-5,"INCLINATION":0.0104,"RA_OF_ASC_NODE":83.6605,"ARG_OF_PERICENTER":3.3583,"MEAN_ANOMALY":338.7,"EPHEMERIS_TYPE":0,"CLASSIFICATION_TYPE":"U","NORAD_CAT_ID":51850,"ELEMENT_SET_NO":999,"REV_AT_EPOCH":607,"BSTAR":0,"MEAN_MOTION_DOT":0,"MEAN_MOTION_DDOT":0},{"OBJECT_NAME":"ZHONGXING-6D","OBJECT_ID":"2022-038A","EPOCH":"2026-04-26T01:23:23.835264","MEAN_MOTION":1.00270649,"ECCENTRICITY":0.0001547,"INCLINATION":0.0191,"RA_OF_ASC_NODE":243.0152,"ARG_OF_PERICENTER":100.0281,"MEAN_ANOMALY":16.9429,"EPHEMERIS_TYPE":0,"CLASSIFICATION_TYPE":"U","NORAD_CAT_ID":52255,"ELEMENT_SET_NO":999,"REV_AT_EPOCH":1490,"BSTAR":0,"MEAN_MOTION_DOT":-3.67e-6,"MEAN_MOTION_DDOT":0},{"OBJECT_NAME":"NILESAT 301","OBJECT_ID":"2022-061A","EPOCH":"2026-04-27T05:28:38.742816","MEAN_MOTION":1.00272961,"ECCENTRICITY":0.0005905,"INCLINATION":0.0613,"RA_OF_ASC_NODE":40.8793,"ARG_OF_PERICENTER":340.2941,"MEAN_ANOMALY":269.2277,"EPHEMERIS_TYPE":0,"CLASSIFICATION_TYPE":"U","NORAD_CAT_ID":52817,"ELEMENT_SET_NO":999,"REV_AT_EPOCH":1422,"BSTAR":0,"MEAN_MOTION_DOT":-6.7e-7,"MEAN_MOTION_DDOT":0},{"OBJECT_NAME":"CMS-02 (GSAT-24)","OBJECT_ID":"2022-067A","EPOCH":"2026-04-27T00:13:48.396288","MEAN_MOTION":1.00270808,"ECCENTRICITY":0.0002211,"INCLINATION":0.0127,"RA_OF_ASC_NODE":208.2142,"ARG_OF_PERICENTER":140.6895,"MEAN_ANOMALY":312.5841,"EPHEMERIS_TYPE":0,"CLASSIFICATION_TYPE":"U","NORAD_CAT_ID":52903,"ELEMENT_SET_NO":999,"REV_AT_EPOCH":1409,"BSTAR":0,"MEAN_MOTION_DOT":-1.76e-6,"MEAN_MOTION_DDOT":0},{"OBJECT_NAME":"MEASAT 3D","OBJECT_ID":"2022-067B","EPOCH":"2026-04-27T04:51:21.769920","MEAN_MOTION":1.00270733,"ECCENTRICITY":0.000229,"INCLINATION":0.047,"RA_OF_ASC_NODE":43.1455,"ARG_OF_PERICENTER":323.5932,"MEAN_ANOMALY":12.8031,"EPHEMERIS_TYPE":0,"CLASSIFICATION_TYPE":"U","NORAD_CAT_ID":52904,"ELEMENT_SET_NO":999,"REV_AT_EPOCH":1413,"BSTAR":0,"MEAN_MOTION_DOT":-2.52e-6,"MEAN_MOTION_DDOT":0},{"OBJECT_NAME":"SES-22","OBJECT_ID":"2022-071A","EPOCH":"2026-04-27T04:02:38.500224","MEAN_MOTION":1.00274145,"ECCENTRICITY":0.0001028,"INCLINATION":0.0203,"RA_OF_ASC_NODE":273.6155,"ARG_OF_PERICENTER":119.2051,"MEAN_ANOMALY":103.9973,"EPHEMERIS_TYPE":0,"CLASSIFICATION_TYPE":"U","NORAD_CAT_ID":52933,"ELEMENT_SET_NO":999,"REV_AT_EPOCH":701,"BSTAR":0,"MEAN_MOTION_DOT":9.4e-7,"MEAN_MOTION_DDOT":0},{"OBJECT_NAME":"WFOV (USA 332)","OBJECT_ID":"2022-073A","EPOCH":"2026-04-26T22:41:27.254112","MEAN_MOTION":1.00273133,"ECCENTRICITY":0.0002091,"INCLINATION":3.5816,"RA_OF_ASC_NODE":79.1598,"ARG_OF_PERICENTER":244.3227,"MEAN_ANOMALY":351.0838,"EPHEMERIS_TYPE":0,"CLASSIFICATION_TYPE":"U","NORAD_CAT_ID":52940,"ELEMENT_SET_NO":999,"REV_AT_EPOCH":1385,"BSTAR":0,"MEAN_MOTION_DOT":-3.7e-6,"MEAN_MOTION_DDOT":0},{"OBJECT_NAME":"TIANLIAN 2-03","OBJECT_ID":"2022-078A","EPOCH":"2026-04-27T05:12:38.610720","MEAN_MOTION":1.00272882,"ECCENTRICITY":0.0002485,"INCLINATION":0.5419,"RA_OF_ASC_NODE":75.5321,"ARG_OF_PERICENTER":286.7514,"MEAN_ANOMALY":301.6583,"EPHEMERIS_TYPE":0,"CLASSIFICATION_TYPE":"U","NORAD_CAT_ID":53100,"ELEMENT_SET_NO":999,"REV_AT_EPOCH":1403,"BSTAR":0,"MEAN_MOTION_DOT":6.2e-7,"MEAN_MOTION_DDOT":0}]
